{"type": "FeatureCollection", "features": [ {"type": "Feature", "properties": {"norad_id": 66474, "name": "STARLINK-35620", "group": "last-30-days", "lat": 39.96756269927664, "lon": 174.04279965630474, "alt_km": 405.5625518831721, "timestamp": "2025-12-14T22:38:39.515881+00:00", "meta": {"OBJECT_NAME": "STARLINK-35620", "OBJECT_ID": "2025-262U", "EPOCH": "2025-12-12T13:00:34.651008", "MEAN_MOTION": 15.51135131, "ECCENTRICITY": 0.00014651, "INCLINATION": 43.0009, "RA_OF_ASC_NODE": 72.1929, "ARG_OF_PERICENTER": 279.0822, "MEAN_ANOMALY": 80.9873, "EPHEMERIS_TYPE": 0, "CLASSIFICATION_TYPE": "U", "NORAD_CAT_ID": 66474, "ELEMENT_SET_NO": 999, "REV_AT_EPOCH": 553, "BSTAR": 0.0027986206, "MEAN_MOTION_DOT": 0.00170828, "MEAN_MOTION_DDOT": 0}, "tle": {"line1": "1 66474U 25262U   25346.54206772  .00170828  00000+0  27986-2 0  9996", "line2": "2 66474  43.0009  72.1929 0001465 279.0822  80.9873 15.51135131  5535"}}, "geometry": {"type": "Point", "coordinates": [174.04279965630474, 39.96756269927664]}}, {"type": "Feature", "properties": {"norad_id": 66475, "name": "STARLINK-35538", "group": "last-30-days", "lat": 16.88594347351173, "lon": 77.34615822517418, "alt_km": 441.35194493543804, "timestamp": "2025-12-14T22:38:39.515891+00:00", "meta": {"OBJECT_NAME": "STARLINK-35538", "OBJECT_ID": "2025-262V", "EPOCH": "2025-12-14T06:00:02.999808", "MEAN_MOTION": 15.4067162, "ECCENTRICITY": 8.051e-05, "INCLINATION": 43.0008, "RA_OF_ASC_NODE": 62.3326, "ARG_OF_PERICENTER": 280.5225, "MEAN_ANOMALY": 213.7869, "EPHEMERIS_TYPE": 0, "CLASSIFICATION_TYPE": "U", "NORAD_CAT_ID": 66475, "ELEMENT_SET_NO": 999, "REV_AT_EPOCH": 588, "BSTAR": 0.0011635293, "MEAN_MOTION_DOT": 0.00048563, "MEAN_MOTION_DDOT": 0}, "tle": {"line1": "1 66475U 25262V   25348.25003472  .00048563  00000+0  11635-2 0  9993", "line2": "2 66475  43.0008  62.3326 0000805 280.5225 213.7869 15.40671620  5883"}}, "geometry": {"type": "Point", "coordinates": [77.34615822517418, 16.88594347351173]}}, {"type": "Feature", "properties": {"norad_id": 66476, "name": "STARLINK-35372", "group": "last-30-days", "lat": 24.575642609225277, "lon": 87.69501219359123, "alt_km": 440.8167421519165, "timestamp": "2025-12-14T22:38:39.515902+00:00", "meta": {"OBJECT_NAME": "STARLINK-35372", "OBJECT_ID": "2025-262W", "EPOCH": "2025-12-14T06:00:02.999808", "MEAN_MOTION": 15.40620427, "ECCENTRICITY": 0.0001322, "INCLINATION": 43.0006, "RA_OF_ASC_NODE": 62.3018, "ARG_OF_PERICENTER": 241.55, "MEAN_ANOMALY": 265.1933, "EPHEMERIS_TYPE": 0, "CLASSIFICATION_TYPE": "U", "NORAD_CAT_ID": 66476, "ELEMENT_SET_NO": 999, "REV_AT_EPOCH": 577, "BSTAR": 0.0019994679, "MEAN_MOTION_DOT": 0.0008392, "MEAN_MOTION_DDOT": 0}, "tle": {"line1": "1 66476U 25262W   25348.25003472  .00083920  00000+0  19995-2 0  9997", "line2": "2 66476  43.0006  62.3018 0001322 241.5500 265.1933 15.40620427  5778"}}, "geometry": {"type": "Point", "coordinates": [87.69501219359123, 24.575642609225277]}}, {"type": "Feature", "properties": {"norad_id": 66477, "name": "STARLINK-35354", "group": "last-30-days", "lat": 37.15416464825743, "lon": 112.65374931063668, "alt_km": 441.8345039787655, "timestamp": "2025-12-14T22:38:39.515913+00:00", "meta": {"OBJECT_NAME": "STARLINK-35354", "OBJECT_ID": "2025-262X", "EPOCH": "2025-12-14T06:00:02.999808", "MEAN_MOTION": 15.43338383, "ECCENTRICITY": 9.659e-05, "INCLINATION": 43.0004, "RA_OF_ASC_NODE": 62.2473, "ARG_OF_PERICENTER": 261.8873, "MEAN_ANOMALY": 267.3956, "EPHEMERIS_TYPE": 0, "CLASSIFICATION_TYPE": "U", "NORAD_CAT_ID": 66477, "ELEMENT_SET_NO": 999, "REV_AT_EPOCH": 588, "BSTAR": -0.058573771, "MEAN_MOTION_DOT": -0.02378784, "MEAN_MOTION_DDOT": 0}, "tle": {"line1": "1 66477U 25262X   25348.25003472 -.02378784  00000+0 -58574-1 0  9992", "line2": "2 66477  43.0004  62.2473 0000965 261.8873 267.3956 15.43338383  5882"}}, "geometry": {"type": "Point", "coordinates": [112.65374931063668, 37.15416464825743]}}, {"type": "Feature", "properties": {"norad_id": 66478, "name": "STARLINK-35283", "group": "last-30-days", "lat": 41.18624855313608, "lon": 128.09432508270118, "alt_km": 436.5018453658604, "timestamp": "2025-12-14T22:38:39.515923+00:00", "meta": {"OBJECT_NAME": "STARLINK-35283", "OBJECT_ID": "2025-262Y", "EPOCH": "2025-12-14T06:00:02.999808", "MEAN_MOTION": 15.44439946, "ECCENTRICITY": 0.00011304, "INCLINATION": 43.0006, "RA_OF_ASC_NODE": 62.2236, "ARG_OF_PERICENTER": 271.7199, "MEAN_ANOMALY": 266.7952, "EPHEMERIS_TYPE": 0, "CLASSIFICATION_TYPE": "U", "NORAD_CAT_ID": 66478, "ELEMENT_SET_NO": 999, "REV_AT_EPOCH": 588, "BSTAR": -0.048252663, "MEAN_MOTION_DOT": -0.02033642, "MEAN_MOTION_DDOT": 0}, "tle": {"line1": "1 66478U 25262Y   25348.25003472 -.02033642  00000+0 -48253-1 0  9997", "line2": "2 66478  43.0006  62.2236 0001130 271.7199 266.7952 15.44439946  5885"}}, "geometry": {"type": "Point", "coordinates": [128.09432508270118, 41.18624855313608]}}, {"type": "Feature", "properties": {"norad_id": 66479, "name": "STARLINK-35581", "group": "last-30-days", "lat": 31.258487266144083, "lon": 98.92089048400844, "alt_km": 441.82960091062887, "timestamp": "2025-12-14T22:38:39.515934+00:00", "meta": {"OBJECT_NAME": "STARLINK-35581", "OBJECT_ID": "2025-262Z", "EPOCH": "2025-12-14T06:00:02.999808", "MEAN_MOTION": 15.41218537, "ECCENTRICITY": 0.00017322, "INCLINATION": 43.0009, "RA_OF_ASC_NODE": 62.2708, "ARG_OF_PERICENTER": 296.6665, "MEAN_ANOMALY": 222.3136, "EPHEMERIS_TYPE": 0, "CLASSIFICATION_TYPE": "U", "NORAD_CAT_ID": 66479, "ELEMENT_SET_NO": 999, "REV_AT_EPOCH": 588, "BSTAR": -0.022647139, "MEAN_MOTION_DOT": -0.00886227, "MEAN_MOTION_DDOT": 0}, "tle": {"line1": "1 66479U 25262Z   25348.25003472 -.00886227  00000+0 -22647-1 0  9990", "line2": "2 66479  43.0009  62.2708 0001732 296.6665 222.3136 15.41218537  5885"}}, "geometry": {"type": "Point", "coordinates": [98.92089048400844, 31.258487266144083]}}, {"type": "Feature", "properties": {"norad_id": 66480, "name": "STARLINK-35670", "group": "last-30-days", "lat": 42.853351735749065, "lon": 142.79806140481782, "alt_km": 432.3925023902357, "timestamp": "2025-12-14T22:38:39.515944+00:00", "meta": {"OBJECT_NAME": "STARLINK-35670", "OBJECT_ID": "2025-262AA", "EPOCH": "2025-12-14T06:00:02.999808", "MEAN_MOTION": 15.45766786, "ECCENTRICITY": 9.312e-05, "INCLINATION": 43.0002, "RA_OF_ASC_NODE": 62.2047, "ARG_OF_PERICENTER": 273.8038, "MEAN_ANOMALY": 272.4728, "EPHEMERIS_TYPE": 0, "CLASSIFICATION_TYPE": "U", "NORAD_CAT_ID": 66480, "ELEMENT_SET_NO": 999, "REV_AT_EPOCH": 588, "BSTAR": -0.046577784, "MEAN_MOTION_DOT": -0.02052652, "MEAN_MOTION_DDOT": 0}, "tle": {"line1": "1 66480U 25262AA  25348.25003472 -.02052652  00000+0 -46578-1 0  9990", "line2": "2 66480  43.0002  62.2047 0000931 273.8038 272.4728 15.45766786  5888"}}, "geometry": {"type": "Point", "coordinates": [142.79806140481782, 42.853351735749065]}}, {"type": "Feature", "properties": {"norad_id": 66481, "name": "STARLINK-35698", "group": "last-30-days", "lat": 40.18170922750473, "lon": 173.12966709853282, "alt_km": 416.3443158029377, "timestamp": "2025-12-14T22:38:39.515955+00:00", "meta": {"OBJECT_NAME": "STARLINK-35698", "OBJECT_ID": "2025-262AB", "EPOCH": "2025-12-14T05:09:09.186624", "MEAN_MOTION": 15.49507623, "ECCENTRICITY": 0.00012586, "INCLINATION": 42.9993, "RA_OF_ASC_NODE": 62.3823, "ARG_OF_PERICENTER": 264.0332, "MEAN_ANOMALY": 96.0384, "EPHEMERIS_TYPE": 0, "CLASSIFICATION_TYPE": "U", "NORAD_CAT_ID": 66481, "ELEMENT_SET_NO": 999, "REV_AT_EPOCH": 579, "BSTAR": -0.015610615, "MEAN_MOTION_DOT": -0.00808298, "MEAN_MOTION_DDOT": 0}, "tle": {"line1": "1 66481U 25262AB  25348.21468966 -.00808298  00000+0 -15611-1 0  9997", "line2": "2 66481  42.9993  62.3823 0001258 264.0332  96.0384 15.49507623  5796"}}, "geometry": {"type": "Point", "coordinates": [173.12966709853282, 40.18170922750473]}}, {"type": "Feature", "properties": {"norad_id": 66482, "name": "STARLINK-35648", "group": "last-30-days", "lat": 37.81580247520386, "lon": -178.29664602886265, "alt_km": 408.86512805066104, "timestamp": "2025-12-14T22:38:39.515965+00:00", "meta": {"OBJECT_NAME": "STARLINK-35648", "OBJECT_ID": "2025-262AC", "EPOCH": "2025-12-13T12:08:21.572736", "MEAN_MOTION": 15.50603373, "ECCENTRICITY": 0.00010524, "INCLINATION": 42.9975, "RA_OF_ASC_NODE": 66.5208, "ARG_OF_PERICENTER": 275.6037, "MEAN_ANOMALY": 84.4703, "EPHEMERIS_TYPE": 0, "CLASSIFICATION_TYPE": "U", "NORAD_CAT_ID": 66482, "ELEMENT_SET_NO": 999, "REV_AT_EPOCH": 552, "BSTAR": 0.0015071759, "MEAN_MOTION_DOT": 0.00089167, "MEAN_MOTION_DDOT": 0}, "tle": {"line1": "1 66482U 25262AC  25347.50580524  .00089167  00000+0  15072-2 0  9990", "line2": "2 66482  42.9975  66.5208 0001052 275.6037  84.4703 15.50603373  5520"}}, "geometry": {"type": "Point", "coordinates": [-178.29664602886265, 37.81580247520386]}}, {"type": "Feature", "properties": {"norad_id": 66483, "name": "STARLINK-35654", "group": "last-30-days", "lat": 37.50003525912796, "lon": -177.33366309777176, "alt_km": 409.403928653147, "timestamp": "2025-12-14T22:38:39.515975+00:00", "meta": {"OBJECT_NAME": "STARLINK-35654", "OBJECT_ID": "2025-262AD", "EPOCH": "2025-12-14T05:08:15.077760", "MEAN_MOTION": 15.50498721, "ECCENTRICITY": 0.00032862, "INCLINATION": 42.9973, "RA_OF_ASC_NODE": 62.3734, "ARG_OF_PERICENTER": 214.0284, "MEAN_ANOMALY": 146.0365, "EPHEMERIS_TYPE": 0, "CLASSIFICATION_TYPE": "U", "NORAD_CAT_ID": 66483, "ELEMENT_SET_NO": 999, "REV_AT_EPOCH": 579, "BSTAR": 0.0014614034, "MEAN_MOTION_DOT": 0.00086104, "MEAN_MOTION_DDOT": 0}, "tle": {"line1": "1 66483U 25262AD  25348.21406340  .00086104  00000+0  14614-2 0  9992", "line2": "2 66483  42.9973  62.3734 0003286 214.0284 146.0365 15.50498721  5796"}}, "geometry": {"type": "Point", "coordinates": [-177.33366309777176, 37.50003525912796]}}]}